%YAML 1.1
%TAG !u! tag:unity3d.com,2011:
--- !u!114 &11400000
MonoBehaviour:
  m_ObjectHideFlags: 0
  m_CorrespondingSourceObject: {fileID: 0}
  m_PrefabInstance: {fileID: 0}
  m_PrefabAsset: {fileID: 0}
  m_GameObject: {fileID: 0}
  m_Enabled: 1
  m_EditorHideFlags: 0
  m_Script: {fileID: 11500000, guid: 3c3c350472192c149822725a54cc75ed, type: 3}
  m_Name: Moon
  m_EditorClassIdentifier: 
  mass: 7.347e+22
  diameter: 3474000.8
  orbit:
    semimajorAxis: 384400000
    eccentricity: 0.0554
    inclination: 0.0900589894
    lonAscNode: 2.152689099
    argPeriapsis: 5.37701036
    trueAnomaly: 2.52287135
    meanAnomaly: 0
    anomaly: 0
    semiminorAxis: 0
    meanMotion: 0
    semiLatusRectum: 0
    timeToPeriapsis: 0
    period: 0
  argPrecessionPeriod: 5.997
  ascPrecessionPeriod: 18.6
  material: {fileID: 2100000, guid: b3496bf1f8af9d247a6707ab06192350, type: 2}
  bodiesOnOrbit: []
  type: 2
